IXPE                    
1 49954U 21121A   24059.91667824  .00008257  00000+0  63434-3 0  9995
2 49954   0.2302 123.3141 0009457  99.4679  26.5300 14.96674727  5794
